start=new Date('2021-10-15T00:00:00.000Z').valueOf();
sats=[{"OBJECT_TYPE":"PAYLOAD","MEAN_MOTION_DOT":"-0.00000223","REV_AT_EPOCH":"2597","PERIAPSIS":"545.677","TIME_SYSTEM":"UTC","OBJECT_NAME":"STARLINK-2519","MEAN_ANOMALY":"274.6912","FILE":"3163138","SITE":"AFETR","BSTAR":"0.00000392100000","CENTER_NAME":"EARTH","MEAN_ELEMENT_THEORY":"SGP4","CLASSIFICATION_TYPE":"U","REF_FRAME":"TEME","LAUNCH_DATE":"2021-04-29","NORAD_CAT_ID":"48305","COUNTRY_CODE":"US","ARG_OF_PERICENTER":"85.4333","DECAY_DATE":null,"SEMIMAJOR_AXIS":"6925.364","RA_OF_ASC_NODE":"105.2606","TLE_LINE2":"2 48305  53.0545 105.2606 0002241  85.4333 274.6912 15.06395115 25979","PERIOD":"95.592","INCLINATION":"53.0545","MEAN_MOTION_DDOT":"0.0000000000000","ELEMENT_SET_NO":"999","ECCENTRICITY":"0.00022410","RCS_SIZE":"LARGE","TLE_LINE1":"1 48305U 21036AF  21287.78977171 -.00000223  00000-0  39210-5 0  9997","OBJECT_ID":"2021-036AF","MEAN_MOTION":"15.06395115","GP_ID":"187189594","EPHEMERIS_TYPE":"0","EPOCH":"2021-10-14T18:57:16.275744","APOAPSIS":"548.781"},{"APOAPSIS":"548.657","EPOCH":"2021-10-14T18:51:57.565152","EPHEMERIS_TYPE":"0","MEAN_MOTION":"15.06389663","GP_ID":"187189845","OBJECT_ID":"2021-036AG","TLE_LINE1":"1 48306U 21036AG  21287.78608293 -.00000469  00000-0 -12591-4 0  9999","RCS_SIZE":"LARGE","ECCENTRICITY":"0.00020390","ELEMENT_SET_NO":"999","MEAN_MOTION_DDOT":"0.0000000000000","PERIOD":"95.593","INCLINATION":"53.0554","RA_OF_ASC_NODE":"105.2851","TLE_LINE2":"2 48306  53.0554 105.2851 0002039  87.4757 272.6465 15.06389663 25971","SEMIMAJOR_AXIS":"6925.380","DECAY_DATE":null,"ARG_OF_PERICENTER":"87.4757","LAUNCH_DATE":"2021-04-29","NORAD_CAT_ID":"48306","COUNTRY_CODE":"US","REF_FRAME":"TEME","CLASSIFICATION_TYPE":"U","MEAN_ELEMENT_THEORY":"SGP4","CENTER_NAME":"EARTH","FILE":"3163138","BSTAR":"-0.00001259100000","SITE":"AFETR","MEAN_ANOMALY":"272.6465","OBJECT_NAME":"STARLINK-2523","TIME_SYSTEM":"UTC","PERIAPSIS":"545.833","REV_AT_EPOCH":"2597","MEAN_MOTION_DOT":"-0.00000469","OBJECT_TYPE":"PAYLOAD"},{"PERIAPSIS":"545.739","MEAN_MOTION_DOT":"0.00001965","REV_AT_EPOCH":"2597","OBJECT_TYPE":"PAYLOAD","LAUNCH_DATE":"2021-04-29","COUNTRY_CODE":"US","NORAD_CAT_ID":"48307","ARG_OF_PERICENTER":"82.5813","DECAY_DATE":null,"SEMIMAJOR_AXIS":"6925.391","FILE":"3163138","BSTAR":"0.00015084000000","SITE":"AFETR","MEAN_ELEMENT_THEORY":"SGP4","CENTER_NAME":"EARTH","CLASSIFICATION_TYPE":"U","REF_FRAME":"TEME","OBJECT_NAME":"STARLINK-2528","MEAN_ANOMALY":"277.5424","TIME_SYSTEM":"UTC","MEAN_MOTION_DDOT":"0.0000000000000","ELEMENT_SET_NO":"999","PERIOD":"95.593","INCLINATION":"53.0545","TLE_LINE2":"2 48307  53.0545 105.2948 0002190  82.5813 277.5424 15.06386198 25975","RA_OF_ASC_NODE":"105.2948","EPOCH":"2021-10-14T18:46:39.079200","APOAPSIS":"548.773","OBJECT_ID":"2021-036AH","GP_ID":"187190596","MEAN_MOTION":"15.06386198","EPHEMERIS_TYPE":"0","ECCENTRICITY":"0.00021900","RCS_SIZE":"LARGE","TLE_LINE1":"1 48307U 21036AH  21287.78239675  .00001965  00000-0  15084-3 0  9993"},{"SEMIMAJOR_AXIS":"6925.345","COUNTRY_CODE":"US","LAUNCH_DATE":"2021-04-29","NORAD_CAT_ID":"48308","DECAY_DATE":null,"ARG_OF_PERICENTER":"77.5582","CLASSIFICATION_TYPE":"U","REF_FRAME":"TEME","FILE":"3163138","SITE":"AFETR","BSTAR":"-0.00002047400000","MEAN_ELEMENT_THEORY":"SGP4","CENTER_NAME":"EARTH","MEAN_ANOMALY":"282.5633","OBJECT_NAME":"STARLINK-2532","TIME_SYSTEM":"UTC","PERIAPSIS":"545.811","REV_AT_EPOCH":"2599","MEAN_MOTION_DOT":"-0.00000587","OBJECT_TYPE":"PAYLOAD","APOAPSIS":"548.609","EPOCH":"2021-10-14T21:52:24.794976","EPHEMERIS_TYPE":"0","OBJECT_ID":"2021-036AJ","GP_ID":"187188844","MEAN_MOTION":"15.06401228","TLE_LINE1":"1 48308U 21036AJ  21287.91139809 -.00000587  00000-0 -20474-4 0  9998","RCS_SIZE":"LARGE","ECCENTRICITY":"0.00020200","MEAN_MOTION_DDOT":"0.0000000000000","ELEMENT_SET_NO":"999","INCLINATION":"53.0553","PERIOD":"95.592","TLE_LINE2":"2 48308  53.0553 104.7210 0002020  77.5582 282.5633 15.06401228 25992","RA_OF_ASC_NODE":"104.7210"},{"MEAN_MOTION_DDOT":"0.0000000000000","ELEMENT_SET_NO":"999","RA_OF_ASC_NODE":"105.3453","TLE_LINE2":"2 48309  53.0565 105.3453 0001878  70.5295 289.5897 15.06386635 25977","INCLINATION":"53.0565","PERIOD":"95.593","OBJECT_ID":"2021-036AK","MEAN_MOTION":"15.06386635","GP_ID":"187189094","EPHEMERIS_TYPE":"0","EPOCH":"2021-10-14T18:36:02.358720","APOAPSIS":"548.555","ECCENTRICITY":"0.00018780","TLE_LINE1":"1 48309U 21036AK  21287.77502730 -.00002162  00000-0 -12631-3 0  9996","RCS_SIZE":"LARGE","MEAN_MOTION_DOT":"-0.00002162","REV_AT_EPOCH":"2597","PERIAPSIS":"545.954","OBJECT_TYPE":"PAYLOAD","BSTAR":"-0.00012631000000","FILE":"3163138","SITE":"AFETR","MEAN_ELEMENT_THEORY":"SGP4","CENTER_NAME":"EARTH","CLASSIFICATION_TYPE":"U","REF_FRAME":"TEME","NORAD_CAT_ID":"48309","LAUNCH_DATE":"2021-04-29","COUNTRY_CODE":"US","DECAY_DATE":null,"ARG_OF_PERICENTER":"70.5295","SEMIMAJOR_AXIS":"6925.390","TIME_SYSTEM":"UTC","OBJECT_NAME":"STARLINK-2517","MEAN_ANOMALY":"289.5897"},{"OBJECT_TYPE":"PAYLOAD","PERIAPSIS":"545.867","REV_AT_EPOCH":"2598","MEAN_MOTION_DOT":"-0.00001233","MEAN_ANOMALY":"276.0825","OBJECT_NAME":"STARLINK-2536","TIME_SYSTEM":"UTC","SEMIMAJOR_AXIS":"6925.372","DECAY_DATE":null,"ARG_OF_PERICENTER":"84.0389","COUNTRY_CODE":"US","LAUNCH_DATE":"2021-04-29","NORAD_CAT_ID":"48310","CLASSIFICATION_TYPE":"U","REF_FRAME":"TEME","MEAN_ELEMENT_THEORY":"SGP4","CENTER_NAME":"EARTH","BSTAR":"-0.00006388700000","FILE":"3163138","SITE":"AFETR","PERIOD":"95.593","INCLINATION":"53.0536","TLE_LINE2":"2 48310  53.0536 105.0435 0001979  84.0389 276.0825 15.06392194 25980","RA_OF_ASC_NODE":"105.0435","ELEMENT_SET_NO":"999","MEAN_MOTION_DDOT":"0.0000000000000","RCS_SIZE":"LARGE","TLE_LINE1":"1 48310U 21036AL  21287.83769042 -.00001233  00000-0 -63887-4 0  9994","ECCENTRICITY":"0.00019790","APOAPSIS":"548.608","EPOCH":"2021-10-14T20:06:16.452288","EPHEMERIS_TYPE":"0","MEAN_MOTION":"15.06392194","GP_ID":"187190346","OBJECT_ID":"2021-036AL"},{"EPHEMERIS_TYPE":"0","MEAN_MOTION":"15.06433207","GP_ID":"187190096","OBJECT_ID":"2021-036AM","APOAPSIS":"548.461","EPOCH":"2021-10-14T18:25:23.601792","RCS_SIZE":"LARGE","TLE_LINE1":"1 48311U 21036AM  21287.76763428 -.00008650  00000-0 -56197-3 0  9994","ECCENTRICITY":"0.00019480","ELEMENT_SET_NO":"999","MEAN_MOTION_DDOT":"0.0000000000000","RA_OF_ASC_NODE":"105.3688","TLE_LINE2":"2 48311  53.0542 105.3688 0001948  61.5391 298.5794 15.06433207 25974","PERIOD":"95.590","INCLINATION":"53.0542","REF_FRAME":"TEME","CLASSIFICATION_TYPE":"U","MEAN_ELEMENT_THEORY":"SGP4","CENTER_NAME":"EARTH","SITE":"AFETR","FILE":"3163138","BSTAR":"-0.00056197000000","SEMIMAJOR_AXIS":"6925.247","DECAY_DATE":null,"ARG_OF_PERICENTER":"61.5391","LAUNCH_DATE":"2021-04-29","COUNTRY_CODE":"US","NORAD_CAT_ID":"48311","TIME_SYSTEM":"UTC","MEAN_ANOMALY":"298.5794","OBJECT_NAME":"STARLINK-2534","REV_AT_EPOCH":"2597","MEAN_MOTION_DOT":"-0.00008650","PERIAPSIS":"545.763","OBJECT_TYPE":"PAYLOAD"},{"MEAN_MOTION_DDOT":"0.0000000000000","ELEMENT_SET_NO":"999","PERIOD":"95.592","INCLINATION":"53.0550","RA_OF_ASC_NODE":"105.3919","TLE_LINE2":"2 48312  53.0550 105.3919 0001900  77.7931 282.3270 15.06395989 25972","EPOCH":"2021-10-14T18:20:06.904320","APOAPSIS":"548.542","OBJECT_ID":"2021-036AN","GP_ID":"187189345","MEAN_MOTION":"15.06395989","EPHEMERIS_TYPE":"0","ECCENTRICITY":"0.00019000","TLE_LINE1":"1 48312U 21036AN  21287.76396880 -.00000511  00000-0 -15390-4 0  9998","RCS_SIZE":"LARGE","PERIAPSIS":"545.910","MEAN_MOTION_DOT":"-0.00000511","REV_AT_EPOCH":"2597","OBJECT_TYPE":"PAYLOAD","COUNTRY_CODE":"US","LAUNCH_DATE":"2021-04-29","NORAD_CAT_ID":"48312","DECAY_DATE":null,"ARG_OF_PERICENTER":"77.7931","SEMIMAJOR_AXIS":"6925.361","FILE":"3163138","SITE":"AFETR","BSTAR":"-0.00001539000000","MEAN_ELEMENT_THEORY":"SGP4","CENTER_NAME":"EARTH","CLASSIFICATION_TYPE":"U","REF_FRAME":"TEME","OBJECT_NAME":"STARLINK-2061","MEAN_ANOMALY":"282.3270","TIME_SYSTEM":"UTC"},{"SEMIMAJOR_AXIS":"6925.389","COUNTRY_CODE":"US","LAUNCH_DATE":"2021-04-29","NORAD_CAT_ID":"48313","DECAY_DATE":null,"ARG_OF_PERICENTER":"83.6736","CLASSIFICATION_TYPE":"U","REF_FRAME":"TEME","FILE":"3163138","BSTAR":"-0.00000366180000","SITE":"AFETR","MEAN_ELEMENT_THEORY":"SGP4","CENTER_NAME":"EARTH","MEAN_ANOMALY":"276.4507","OBJECT_NAME":"STARLINK-2541","TIME_SYSTEM":"UTC","PERIAPSIS":"545.707","REV_AT_EPOCH":"2598","MEAN_MOTION_DOT":"-0.00000336","OBJECT_TYPE":"PAYLOAD","APOAPSIS":"548.802","EPOCH":"2021-10-14T21:25:53.623200","EPHEMERIS_TYPE":"0","OBJECT_ID":"2021-036AP","GP_ID":"187189595","MEAN_MOTION":"15.06386682","RCS_SIZE":"LARGE","TLE_LINE1":"1 48313U 21036AP  21287.89298175 -.00000336  00000-0 -36618-5 0  9993","ECCENTRICITY":"0.00022340","MEAN_MOTION_DDOT":"0.0000000000000","ELEMENT_SET_NO":"999","PERIOD":"95.593","INCLINATION":"53.0551","TLE_LINE2":"2 48313  53.0551 104.8208 0002234  83.6736 276.4507 15.06386682 25987","RA_OF_ASC_NODE":"104.8208"},{"MEAN_MOTION_DDOT":"0.0000000000000","ELEMENT_SET_NO":"999","RA_OF_ASC_NODE":"105.1343","TLE_LINE2":"2 48314  53.0559 105.1343 0002184  72.3154 287.8073 15.06403229 25973","PERIOD":"95.592","INCLINATION":"53.0559","EPHEMERIS_TYPE":"0","OBJECT_ID":"2021-036AQ","GP_ID":"187189846","MEAN_MOTION":"15.06403229","APOAPSIS":"548.716","EPOCH":"2021-10-14T19:45:01.690272","TLE_LINE1":"1 48314U 21036AQ  21287.82293623  .00000116  00000-0  26704-4 0  9998","RCS_SIZE":"LARGE","ECCENTRICITY":"0.00021840","REV_AT_EPOCH":"2597","MEAN_MOTION_DOT":"0.00000116","PERIAPSIS":"545.691","OBJECT_TYPE":"PAYLOAD","CLASSIFICATION_TYPE":"U","REF_FRAME":"TEME","BSTAR":"0.00002670400000","FILE":"3163138","SITE":"AFETR","MEAN_ELEMENT_THEORY":"SGP4","CENTER_NAME":"EARTH","SEMIMAJOR_AXIS":"6925.339","LAUNCH_DATE":"2021-04-29","NORAD_CAT_ID":"48314","COUNTRY_CODE":"US","DECAY_DATE":null,"ARG_OF_PERICENTER":"72.3154","TIME_SYSTEM":"UTC","MEAN_ANOMALY":"287.8073","OBJECT_NAME":"STARLINK-2549"}];
